CAS500-2 RIDESHARE OBJE*
1 68991U 26100M   26129.63988524  .00000977  00000+0  10384-3 0  9998
2 68991  97.7401  27.8065 0002088 282.9702  77.1283 14.91224953   951
