{
  "norad_id": 68991,
  "name": "CAS500-2 RIDESHARE OBJECT M",
  "history": [
    {
      "epoch": "2026-05-09T15:21:26.083872Z",
      "apogee_km": 595.5706611578989,
      "perigee_km": 592.6590487832636,
      "latitude_deg": -2.1983798371007592e-05,
      "longitude_deg": -70.00674575540556,
      "height_km": 596.8322812448264,
      "semi_major_axis_km": 6972.251854970581,
      "eccentricity": 0.0002088,
      "inclination_deg": 97.7401,
      "raan_deg": 27.8065,
      "arg_perigee_deg": 282.9702,
      "mean_anomaly_deg": 77.1283,
      "mean_motion_rev_day": 14.91224953
    }
  ]
}